[{"OBJECT_NAME":"STARLINK-34431","OBJECT_ID":"2025-126K","EPOCH":"2025-08-10T15:47:13.255584","MEAN_MOTION":14.98342241,"ECCENTRICITY":0.0003886,"INCLINATION":69.9968,"RA_OF_ASC_NODE":206.4519,"ARG_OF_PERICENTER":282.881,"MEAN_ANOMALY":77.1915,"EPHEMERIS_TYPE":0,"CLASSIFICATION_TYPE":"U","NORAD_CAT_ID":64353,"ELEMENT_SET_NO":999,"REV_AT_EPOCH":907,"BSTAR":0.00024293,"MEAN_MOTION_DOT":2.808e-5,"MEAN_MOTION_DDOT":0},{"OBJECT_NAME":"STARLINK-34473","OBJECT_ID":"2025-126L","EPOCH":"2025-08-11T00:00:02.000160","MEAN_MOTION":14.98319526,"ECCENTRICITY":0.000304,"INCLINATION":70.001,"RA_OF_ASC_NODE":205.6618,"ARG_OF_PERICENTER":270.9279,"MEAN_ANOMALY":67.9615,"EPHEMERIS_TYPE":0,"CLASSIFICATION_TYPE":"U","NORAD_CAT_ID":64354,"ELEMENT_SET_NO":999,"REV_AT_EPOCH":595,"BSTAR":-0.00051684,"MEAN_MOTION_DOT":-6.253e-5,"MEAN_MOTION_DDOT":0},{"OBJECT_NAME":"STARLINK-34270","OBJECT_ID":"2025-126M","EPOCH":"2025-08-11T05:00:03.079872","MEAN_MOTION":14.98436774,"ECCENTRICITY":0.0003469,"INCLINATION":70.0053,"RA_OF_ASC_NODE":205.1603,"ARG_OF_PERICENTER":272.842,"MEAN_ANOMALY":87.2342,"EPHEMERIS_TYPE":0,"CLASSIFICATION_TYPE":"U","NORAD_CAT_ID":64355,"ELEMENT_SET_NO":999,"REV_AT_EPOCH":1036,"BSTAR":-0.0094576,"MEAN_MOTION_DOT":-0.00111477,"MEAN_MOTION_DDOT":0},{"OBJECT_NAME":"STARLINK-34397","OBJECT_ID":"2025-126N","EPOCH":"2025-08-11T05:36:21.989376","MEAN_MOTION":14.99134331,"ECCENTRICITY":0.0003076,"INCLINATION":70.0005,"RA_OF_ASC_NODE":205.2455,"ARG_OF_PERICENTER":275.1816,"MEAN_ANOMALY":84.8992,"EPHEMERIS_TYPE":0,"CLASSIFICATION_TYPE":"U","NORAD_CAT_ID":64356,"ELEMENT_SET_NO":999,"REV_AT_EPOCH":915,"BSTAR":0.0001678,"MEAN_MOTION_DOT":1.951e-5,"MEAN_MOTION_DDOT":0},{"OBJECT_NAME":"STARLINK-34454","OBJECT_ID":"2025-126P","EPOCH":"2025-08-11T05:44:36.245760","MEAN_MOTION":14.99138678,"ECCENTRICITY":0.0003087,"INCLINATION":70.0014,"RA_OF_ASC_NODE":205.2641,"ARG_OF_PERICENTER":272.4502,"MEAN_ANOMALY":87.6304,"EPHEMERIS_TYPE":0,"CLASSIFICATION_TYPE":"U","NORAD_CAT_ID":64357,"ELEMENT_SET_NO":999,"REV_AT_EPOCH":915,"BSTAR":0.00018804,"MEAN_MOTION_DOT":2.198e-5,"MEAN_MOTION_DDOT":0},{"OBJECT_NAME":"STARLINK-34436","OBJECT_ID":"2025-126Q","EPOCH":"2025-08-10T05:58:24.317184","MEAN_MOTION":14.98338908,"ECCENTRICITY":0.000323,"INCLINATION":70.0003,"RA_OF_ASC_NODE":207.4249,"ARG_OF_PERICENTER":284.732,"MEAN_ANOMALY":75.3481,"EPHEMERIS_TYPE":0,"CLASSIFICATION_TYPE":"U","NORAD_CAT_ID":64358,"ELEMENT_SET_NO":999,"REV_AT_EPOCH":1022,"BSTAR":0.00025943,"MEAN_MOTION_DOT":3.005e-5,"MEAN_MOTION_DDOT":0},{"OBJECT_NAME":"STARLINK-34291","OBJECT_ID":"2025-126R","EPOCH":"2025-08-11T04:48:20.056032","MEAN_MOTION":14.98338733,"ECCENTRICITY":0.0002058,"INCLINATION":70.0009,"RA_OF_ASC_NODE":205.1257,"ARG_OF_PERICENTER":266.647,"MEAN_ANOMALY":93.4453,"EPHEMERIS_TYPE":0,"CLASSIFICATION_TYPE":"U","NORAD_CAT_ID":64359,"ELEMENT_SET_NO":999,"REV_AT_EPOCH":915,"BSTAR":0.00041349,"MEAN_MOTION_DOT":4.845e-5,"MEAN_MOTION_DDOT":0},{"OBJECT_NAME":"STARLINK-34458","OBJECT_ID":"2025-126S","EPOCH":"2025-08-10T00:00:02.000160","MEAN_MOTION":14.99137076,"ECCENTRICITY":0.0002974,"INCLINATION":70.0003,"RA_OF_ASC_NODE":208.2352,"ARG_OF_PERICENTER":268.7284,"MEAN_ANOMALY":25.0665,"EPHEMERIS_TYPE":0,"CLASSIFICATION_TYPE":"U","NORAD_CAT_ID":64360,"ELEMENT_SET_NO":999,"REV_AT_EPOCH":595,"BSTAR":-0.00011373,"MEAN_MOTION_DOT":-1.479e-5,"MEAN_MOTION_DDOT":0},{"OBJECT_NAME":"STARLINK-34243","OBJECT_ID":"2025-126T","EPOCH":"2025-08-10T16:17:02.881248","MEAN_MOTION":14.98325806,"ECCENTRICITY":0.0003009,"INCLINATION":70.0017,"RA_OF_ASC_NODE":206.5213,"ARG_OF_PERICENTER":269.5942,"MEAN_ANOMALY":90.4872,"EPHEMERIS_TYPE":0,"CLASSIFICATION_TYPE":"U","NORAD_CAT_ID":64361,"ELEMENT_SET_NO":999,"REV_AT_EPOCH":907,"BSTAR":6.2062e-5,"MEAN_MOTION_DOT":6.48e-6,"MEAN_MOTION_DDOT":0},{"OBJECT_NAME":"STARLINK-34335","OBJECT_ID":"2025-126U","EPOCH":"2025-08-10T15:44:28.548672","MEAN_MOTION":14.99157516,"ECCENTRICITY":0.0003476,"INCLINATION":69.9946,"RA_OF_ASC_NODE":206.4412,"ARG_OF_PERICENTER":279.0241,"MEAN_ANOMALY":81.0525,"EPHEMERIS_TYPE":0,"CLASSIFICATION_TYPE":"U","NORAD_CAT_ID":64362,"ELEMENT_SET_NO":999,"REV_AT_EPOCH":907,"BSTAR":0.00023821,"MEAN_MOTION_DOT":2.811e-5,"MEAN_MOTION_DDOT":0},{"OBJECT_NAME":"STARLINK-34408","OBJECT_ID":"2025-126V","EPOCH":"2025-08-11T05:57:09.316800","MEAN_MOTION":14.99122543,"ECCENTRICITY":0.0003646,"INCLINATION":70.0016,"RA_OF_ASC_NODE":204.896,"ARG_OF_PERICENTER":281.2628,"MEAN_ANOMALY":78.8121,"EPHEMERIS_TYPE":0,"CLASSIFICATION_TYPE":"U","NORAD_CAT_ID":64363,"ELEMENT_SET_NO":999,"REV_AT_EPOCH":916,"BSTAR":-0.00069367,"MEAN_MOTION_DOT":-8.532e-5,"MEAN_MOTION_DDOT":0},{"OBJECT_NAME":"STARLINK-34476","OBJECT_ID":"2025-126W","EPOCH":"2025-08-11T04:48:24.459840","MEAN_MOTION":14.99165491,"ECCENTRICITY":1.55e-5,"INCLINATION":70.0078,"RA_OF_ASC_NODE":205.1341,"ARG_OF_PERICENTER":353.2382,"MEAN_ANOMALY":6.8775,"EPHEMERIS_TYPE":0,"CLASSIFICATION_TYPE":"U","NORAD_CAT_ID":64364,"ELEMENT_SET_NO":999,"REV_AT_EPOCH":915,"BSTAR":0.00077297,"MEAN_MOTION_DOT":9.343e-5,"MEAN_MOTION_DDOT":0},{"OBJECT_NAME":"STARLINK-34479","OBJECT_ID":"2025-126X","EPOCH":"2025-08-11T05:48:12.492000","MEAN_MOTION":14.98332124,"ECCENTRICITY":0.000237,"INCLINATION":70.0016,"RA_OF_ASC_NODE":205.2729,"ARG_OF_PERICENTER":277.0797,"MEAN_ANOMALY":83.0092,"EPHEMERIS_TYPE":0,"CLASSIFICATION_TYPE":"U","NORAD_CAT_ID":64365,"ELEMENT_SET_NO":999,"REV_AT_EPOCH":915,"BSTAR":0.00015475,"MEAN_MOTION_DOT":1.754e-5,"MEAN_MOTION_DDOT":0},{"OBJECT_NAME":"STARLINK-34484","OBJECT_ID":"2025-126Y","EPOCH":"2025-08-10T05:58:09.802848","MEAN_MOTION":14.98346354,"ECCENTRICITY":0.0002682,"INCLINATION":70.0006,"RA_OF_ASC_NODE":207.4253,"ARG_OF_PERICENTER":274.0988,"MEAN_ANOMALY":85.9864,"EPHEMERIS_TYPE":0,"CLASSIFICATION_TYPE":"U","NORAD_CAT_ID":64366,"ELEMENT_SET_NO":999,"REV_AT_EPOCH":1022,"BSTAR":0.00041861,"MEAN_MOTION_DOT":4.907e-5,"MEAN_MOTION_DDOT":0},{"OBJECT_NAME":"STARLINK-34483","OBJECT_ID":"2025-126Z","EPOCH":"2025-08-10T15:41:12.363648","MEAN_MOTION":14.98362533,"ECCENTRICITY":0.0003021,"INCLINATION":70.0008,"RA_OF_ASC_NODE":206.429,"ARG_OF_PERICENTER":276.1287,"MEAN_ANOMALY":83.9528,"EPHEMERIS_TYPE":0,"CLASSIFICATION_TYPE":"U","NORAD_CAT_ID":64367,"ELEMENT_SET_NO":999,"REV_AT_EPOCH":907,"BSTAR":0.00088781,"MEAN_MOTION_DOT":0.00010525,"MEAN_MOTION_DDOT":0},{"OBJECT_NAME":"STARLINK-34457","OBJECT_ID":"2025-126AA","EPOCH":"2025-08-10T22:59:37.437216","MEAN_MOTION":14.98330393,"ECCENTRICITY":0.0003035,"INCLINATION":70.0013,"RA_OF_ASC_NODE":205.888,"ARG_OF_PERICENTER":270.951,"MEAN_ANOMALY":89.1301,"EPHEMERIS_TYPE":0,"CLASSIFICATION_TYPE":"U","NORAD_CAT_ID":64368,"ELEMENT_SET_NO":999,"REV_AT_EPOCH":911,"BSTAR":2.8419e-5,"MEAN_MOTION_DOT":2.46e-6,"MEAN_MOTION_DDOT":0},{"OBJECT_NAME":"STARLINK-34444","OBJECT_ID":"2025-126AB","EPOCH":"2025-08-11T05:32:59.474688","MEAN_MOTION":14.99161181,"ECCENTRICITY":0.0003967,"INCLINATION":70.0006,"RA_OF_ASC_NODE":205.2346,"ARG_OF_PERICENTER":265.777,"MEAN_ANOMALY":94.2936,"EPHEMERIS_TYPE":0,"CLASSIFICATION_TYPE":"U","NORAD_CAT_ID":64369,"ELEMENT_SET_NO":999,"REV_AT_EPOCH":915,"BSTAR":0.00044786,"MEAN_MOTION_DOT":5.371e-5,"MEAN_MOTION_DDOT":0}]
