STARLINK-34431          
1 64353U 25126K   25222.65779231  .00002808  00000+0  24293-3 0  9990
2 64353  69.9968 206.4519 0003886 282.8810  77.1915 14.98342241  9075
STARLINK-34473          
1 64354U 25126L   25223.00002315 -.00006253  00000+0 -51684-3 0  9997
2 64354  70.0010 205.6618 0003040 270.9279  67.9615 14.98319526  5954
STARLINK-34270          
1 64355U 25126M   25223.20836898 -.00111477  00000+0 -94576-2 0  9992
2 64355  70.0053 205.1603 0003469 272.8420  87.2342 14.98436774 10363
STARLINK-34397          
1 64356U 25126N   25223.23358784  .00001951  00000+0  16780-3 0  9994
2 64356  70.0005 205.2455 0003076 275.1816  84.8992 14.99134331  9150
STARLINK-34454          
1 64357U 25126P   25223.23930840  .00002198  00000+0  18804-3 0  9997
2 64357  70.0014 205.2641 0003087 272.4502  87.6304 14.99138678  9158
STARLINK-34436          
1 64358U 25126Q   25222.24889256  .00003005  00000+0  25943-3 0  9992
2 64358  70.0003 207.4249 0003230 284.7320  75.3481 14.98338908 10226
STARLINK-34291          
1 64359U 25126R   25223.20023213  .00004845  00000+0  41349-3 0  9994
2 64359  70.0009 205.1257 0002058 266.6470  93.4453 14.98338733  9155
STARLINK-34458          
1 64360U 25126S   25222.00002315 -.00001479  00000+0 -11373-3 0  9999
2 64360  70.0003 208.2352 0002974 268.7284  25.0665 14.99137076  5952
STARLINK-34243          
1 64361U 25126T   25222.67850557  .00000648  00000+0  62062-4 0  9999
2 64361  70.0017 206.5213 0003009 269.5942  90.4872 14.98325806  9077
STARLINK-34335          
1 64362U 25126U   25222.65588598  .00002811  00000+0  23821-3 0  9994
2 64362  69.9946 206.4412 0003476 279.0241  81.0525 14.99157516  9075
STARLINK-34408          
1 64363U 25126V   25223.24802450 -.00008532  00000+0 -69367-3 0  9990
2 64363  70.0016 204.8960 0003646 281.2628  78.8121 14.99122543  9168
STARLINK-34476          
1 64364U 25126W   25223.20028310  .00009343  00000+0  77297-3 0  9992
2 64364  70.0078 205.1341 0000155 353.2382   6.8775 14.99165491  9157
STARLINK-34479          
1 64365U 25126X   25223.24181125  .00001754  00000+0  15475-3 0  9999
2 64365  70.0016 205.2729 0002370 277.0797  83.0092 14.98332124  9152
STARLINK-34484          
1 64366U 25126Y   25222.24872457  .00004907  00000+0  41861-3 0  9995
2 64366  70.0006 207.4253 0002682 274.0988  85.9864 14.98346354 10221
STARLINK-34483          
1 64367U 25126Z   25222.65361532  .00010525  00000+0  88781-3 0  9993
2 64367  70.0008 206.4290 0003021 276.1287  83.9528 14.98362533  9070
STARLINK-34457          
1 64368U 25126AA  25222.95807219  .00000246  00000+0  28419-4 0  9996
2 64368  70.0013 205.8880 0003035 270.9510  89.1301 14.98330393  9112
STARLINK-34444          
1 64369U 25126AB  25223.23124392  .00005371  00000+0  44786-3 0  9991
2 64369  70.0006 205.2346 0003967 265.7770  94.2936 14.99161181  9153
